$$SOE
2460742.500000000, A.D. 2025-Mar-08 00:00:00.0000, 4.900387668965135E+09, 1.968404854627788E+09, 1.382505937658440E+09,
2460749.500000000, A.D. 2025-Mar-15 00:00:00.0000, 4.899556686649718E+09, 1.971194412642040E+09, 1.383892604965940E+09,
2460756.500000000, A.D. 2025-Mar-22 00:00:00.0000, 4.898724244627688E+09, 1.973983298542474E+09, 1.385278858214072E+09,
2460763.500000000, A.D. 2025-Mar-29 00:00:00.0000, 4.897890344863147E+09, 1.976771516146549E+09, 1.386664697244905E+09,
2460770.500000000, A.D. 2025-Apr-05 00:00:00.0000, 4.897054988122145E+09, 1.979559068634468E+09, 1.388050121937219E+09,
2460777.500000000, A.D. 2025-Apr-12 00:00:00.0000, 4.896218174574804E+09, 1.982345958588692E+09, 1.389435132161645E+09,
2460784.500000000, A.D. 2025-Apr-19 00:00:00.0000, 4.895379903978877E+09, 1.985132188140296E+09, 1.390819727783100E+09,
2460791.500000000, A.D. 2025-Apr-26 00:00:00.0000, 4.894540175716376E+09, 1.987917759019489E+09, 1.392203908668733E+09,
2460798.500000000, A.D. 2025-May-03 00:00:00.0000, 4.893698988796975E+09, 1.990702672529852E+09, 1.393587674692305E+09,
2460805.500000000, A.D. 2025-May-10 00:00:00.0000, 4.892856341856746E+09, 1.993486929455301E+09, 1.394971025732912E+09,
2460812.500000000, A.D. 2025-May-17 00:00:00.0000, 4.892012233189004E+09, 1.996270529859075E+09, 1.396353961661181E+09,
2460819.500000000, A.D. 2025-May-24 00:00:00.0000, 4.891166660981135E+09, 1.999053472720568E+09, 1.397736482292463E+09,
2460826.500000000, A.D. 2025-May-31 00:00:00.0000, 4.890319624175201E+09, 2.001835755721227E+09, 1.399118587294050E+09,
2460833.500000000, A.D. 2025-Jun-07 00:00:00.0000, 4.889471123551403E+09, 2.004617376384528E+09, 1.400500276181639E+09,
2460840.500000000, A.D. 2025-Jun-14 00:00:00.0000, 4.888621160669804E+09, 2.007398333903397E+09, 1.401881548567423E+09,
2460847.500000000, A.D. 2025-Jun-21 00:00:00.0000, 4.887769735887107E+09, 2.010178628383877E+09, 1.403262404280888E+09,
2460854.500000000, A.D. 2025-Jun-28 00:00:00.0000, 4.886916848576696E+09, 2.012958259269907E+09, 1.404642843219640E+09,
2460861.500000000, A.D. 2025-Jul-05 00:00:00.0000, 4.886062498035187E+09, 2.015737225105836E+09, 1.406022865245665E+09,
2460868.500000000, A.D. 2025-Jul-12 00:00:00.0000, 4.885206683884499E+09, 2.018515523831493E+09, 1.407402470170481E+09,
2460875.500000000, A.D. 2025-Jul-19 00:00:00.0000, 4.884349406159039E+09, 2.021293153034880E+09, 1.408781657764891E+09,
2460882.500000000, A.D. 2025-Jul-26 00:00:00.0000, 4.883490665287905E+09, 2.024070110106088E+09, 1.410160427769532E+09,
2460889.500000000, A.D. 2025-Aug-02 00:00:00.0000, 4.882630462037495E+09, 2.026846392314209E+09, 1.411538779902111E+09,
2460896.500000000, A.D. 2025-Aug-09 00:00:00.0000, 4.881768797437958E+09, 2.029621996792890E+09, 1.412916713858099E+09,
2460903.500000000, A.D. 2025-Aug-16 00:00:00.0000, 4.880905672770412E+09, 2.032396920371523E+09, 1.414294229292884E+09,
2460910.500000000, A.D. 2025-Aug-23 00:00:00.0000, 4.880041089907568E+09, 2.035171159268865E+09, 1.415671325760044E+09,
2460917.500000000, A.D. 2025-Aug-30 00:00:00.0000, 4.879175052336681E+09, 2.037944709363353E+09, 1.417048002634192E+09,
2460924.500000000, A.D. 2025-Sep-06 00:00:00.0000, 4.878307565446722E+09, 2.040717568040579E+09, 1.418424259230450E+09,
2460931.500000000, A.D. 2025-Sep-13 00:00:00.0000, 4.877438634408984E+09, 2.043489735135208E+09, 1.419800095071134E+09,
2460938.500000000, A.D. 2025-Sep-20 00:00:00.0000, 4.876568262924402E+09, 2.046261211323065E+09, 1.421175509865296E+09,
2460945.500000000, A.D. 2025-Sep-27 00:00:00.0000, 4.875696453896082E+09, 2.049031997075127E+09, 1.422550503358549E+09,
2460952.500000000, A.D. 2025-Oct-04 00:00:00.0000, 4.874823210010375E+09, 2.051802092712809E+09, 1.423925075282355E+09,
2460959.500000000, A.D. 2025-Oct-11 00:00:00.0000, 4.873948533852851E+09, 2.054571498621758E+09, 1.425299225360126E+09,
2460966.500000000, A.D. 2025-Oct-18 00:00:00.0000, 4.873072427842818E+09, 2.057340215349961E+09, 1.426672953321715E+09,
2460973.500000000, A.D. 2025-Oct-25 00:00:00.0000, 4.872194894125922E+09, 2.060108243601541E+09, 1.428046258914360E+09,
2460980.500000000, A.D. 2025-Nov-01 00:00:00.0000, 4.871315934464238E+09, 2.062875584142109E+09, 1.429419141907646E+09,
2460987.500000000, A.D. 2025-Nov-08 00:00:00.0000, 4.870435550158359E+09, 2.065642237584713E+09, 1.430791602086579E+09,
2460994.500000000, A.D. 2025-Nov-15 00:00:00.0000, 4.869553742149295E+09, 2.068408203998312E+09, 1.432163639214234E+09,
2461001.500000000, A.D. 2025-Nov-22 00:00:00.0000, 4.868670511702813E+09, 2.071173482559311E+09, 1.433535252944815E+09,
2461008.500000000, A.D. 2025-Nov-29 00:00:00.0000, 4.867785861522956E+09, 2.073938072381616E+09, 1.434906442793713E+09,
2461015.500000000, A.D. 2025-Dec-06 00:00:00.0000, 4.866899795017251E+09, 2.076701974389563E+09, 1.436277208362148E+09,
2461022.500000000, A.D. 2025-Dec-13 00:00:00.0000, 4.866012314147241E+09, 2.079465190863779E+09, 1.437647549501005E+09,
2461029.500000000, A.D. 2025-Dec-20 00:00:00.0000, 4.865123419357497E+09, 2.082227723683461E+09, 1.439017466176991E+09,
2461036.500000000, A.D. 2025-Dec-27 00:00:00.0000, 4.864233110509269E+09, 2.084989573856820E+09, 1.440386958351270E+09,
2461043.500000000, A.D. 2026-Jan-03 00:00:00.0000, 4.863341387359564E+09, 2.087750741724680E+09, 1.441756025954118E+09,
2461050.500000000, A.D. 2026-Jan-10 00:00:00.0000, 4.862448249695437E+09, 2.090511227159010E+09, 1.443124668890072E+09,
2461057.500000000, A.D. 2026-Jan-17 00:00:00.0000, 4.861553697356000E+09, 2.093271029665632E+09, 1.444492887044810E+09,
2461064.500000000, A.D. 2026-Jan-24 00:00:00.0000, 4.860657730220156E+09, 2.096030148414674E+09, 1.445860680288593E+09,
2461071.500000000, A.D. 2026-Jan-31 00:00:00.0000, 4.859760348183471E+09, 2.098788582192269E+09, 1.447228048473580E+09,
2461078.500000000, A.D. 2026-Feb-07 00:00:00.0000, 4.858861551185700E+09, 2.101546329217093E+09, 1.448594991414830E+09,
2461085.500000000, A.D. 2026-Feb-14 00:00:00.0000, 4.857961339542064E+09, 2.104303386807323E+09, 1.449961508830621E+09,
2461092.500000000, A.D. 2026-Feb-21 00:00:00.0000, 4.857059714965786E+09, 2.107059751475841E+09, 1.451327600253804E+09,
2461099.500000000, A.D. 2026-Feb-28 00:00:00.0000, 4.856156681197081E+09, 2.109815420607780E+09, 1.452693265108059E+09,
2461106.500000000, A.D. 2026-Mar-07 00:00:00.0000, 4.855252242180053E+09, 2.112570393770775E+09, 1.454058502978568E+09,
2461113.500000000, A.D. 2026-Mar-14 00:00:00.0000, 4.854346400563183E+09, 2.115324671325364E+09, 1.455423313631981E+09,
2461120.500000000, A.D. 2026-Mar-21 00:00:00.0000, 4.853439158306315E+09, 2.118078253233565E+09, 1.456787696859082E+09,
2461127.500000000, A.D. 2026-Mar-28 00:00:00.0000, 4.852530517384740E+09, 2.120831139094335E+09, 1.458151652408628E+09,
2461134.500000000, A.D. 2026-Apr-04 00:00:00.0000, 4.851620479986619E+09, 2.123583328440262E+09, 1.459515179989006E+09,
2461141.500000000, A.D. 2026-Apr-11 00:00:00.0000, 4.850709048477748E+09, 2.126334820935528E+09, 1.460878279283313E+09,
2461148.500000000, A.D. 2026-Apr-18 00:00:00.0000, 4.849796225292992E+09, 2.129085616468422E+09, 1.462240949962933E+09,
2461155.500000000, A.D. 2026-Apr-25 00:00:00.0000, 4.848882012800487E+09, 2.131835715153105E+09, 1.463603191696799E+09,
2461162.500000000, A.D. 2026-May-02 00:00:00.0000, 4.847966413169636E+09, 2.134585117211008E+09, 1.464965004151300E+09,
2461169.500000000, A.D. 2026-May-09 00:00:00.0000, 4.847049428367881E+09, 2.137333822665617E+09, 1.466326386964150E+09,
2461176.500000000, A.D. 2026-May-16 00:00:00.0000, 4.846131060664558E+09, 2.140081830989043E+09, 1.467687339669000E+09,
2461183.500000000, A.D. 2026-May-23 00:00:00.0000, 4.845211313693989E+09, 2.142829141722756E+09, 1.469047861649651E+09,
2461190.500000000, A.D. 2026-May-30 00:00:00.0000, 4.844290191999526E+09, 2.145575756392098E+09, 1.470407952340625E+09,
2461197.500000000, A.D. 2026-Jun-06 00:00:00.0000, 4.843367698741380E+09, 2.148321678441013E+09, 1.471767611435608E+09,
2461204.500000000, A.D. 2026-Jun-13 00:00:00.0000, 4.842443835234242E+09, 2.151066911385984E+09, 1.473126838783641E+09,
2461211.500000000, A.D. 2026-Jun-20 00:00:00.0000, 4.841518601813657E+09, 2.153811458115297E+09, 1.474485634257961E+09,
2461218.500000000, A.D. 2026-Jun-27 00:00:00.0000, 4.840591998332836E+09, 2.156555320993824E+09, 1.475843997725224E+09,
2461225.500000000, A.D. 2026-Jul-04 00:00:00.0000, 4.839664024289745E+09, 2.159298501998448E+09, 1.477201929051529E+09,
2461232.500000000, A.D. 2026-Jul-11 00:00:00.0000, 4.838734678838416E+09, 2.162041002752294E+09, 1.478559428110891E+09,
2461239.500000000, A.D. 2026-Jul-18 00:00:00.0000, 4.837803960777184E+09, 2.164782824483534E+09, 1.479916494789498E+09,
2461246.500000000, A.D. 2026-Jul-25 00:00:00.0000, 4.836871868538250E+09, 2.167523967911579E+09, 1.481273128983509E+09,
2461253.500000000, A.D. 2026-Aug-01 00:00:00.0000, 4.835938400226688E+09, 2.170264433012589E+09, 1.482629330581844E+09,
2461260.500000000, A.D. 2026-Aug-08 00:00:00.0000, 4.835003553923667E+09, 2.173004218628513E+09, 1.483985099411196E+09,
2461267.500000000, A.D. 2026-Aug-15 00:00:00.0000, 4.834067328668917E+09, 2.175743322370169E+09, 1.485340435141889E+09,
2461274.500000000, A.D. 2026-Aug-22 00:00:00.0000, 4.833129725361255E+09, 2.178481742035796E+09, 1.486695337324154E+09,
2461281.500000000, A.D. 2026-Aug-29 00:00:00.0000, 4.832190745287971E+09, 2.181219477172522E+09, 1.488049805652547E+09,
2461288.500000000, A.D. 2026-Sep-05 00:00:00.0000, 4.831250388416585E+09, 2.183956527912767E+09, 1.489403840028442E+09,
2461295.500000000, A.D. 2026-Sep-12 00:00:00.0000, 4.830308653903812E+09, 2.186692893581371E+09, 1.490757440399395E+09,
2461302.500000000, A.D. 2026-Sep-19 00:00:00.0000, 4.829365540947923E+09, 2.189428572617628E+09, 1.492110606673459E+09,
2461309.500000000, A.D. 2026-Sep-26 00:00:00.0000, 4.828421049125742E+09, 2.192163562879339E+09, 1.493463338710971E+09,
2461316.500000000, A.D. 2026-Oct-03 00:00:00.0000, 4.827475178462905E+09, 2.194897861878178E+09, 1.494815636334242E+09,
$$EOE